COSMOS 2507 (RODNIK-S *)
1 40920U 15050A   26165.25393475  .00000010  00000+0  22079-5 0  9999
2 40920  82.4927  81.4962 0010343   3.1388 356.9755 12.42926566486497
COSMOS 2508 (RODNIK-S *)
1 40921U 15050B   26165.20892821 -.00000015  00000+0 -17655-3 0  9993
2 40921  82.4880  80.0305 0015274  33.0456 327.1575 12.42913879486479
COSMOS 2509 (RODNIK-S *)
1 40922U 15050C   26165.22919316 -.00000045  00000+0 -39591-3 0  9991
2 40922  82.4888  80.1198 0015794  48.9020 311.3421 12.42883234486519
LINGQIAO VIDEO A        
1 40959U 15057B   26165.24607387  .00000669  00000+0  10067-3 0  9999
2 40959  97.6614 160.1930 0015234 281.1075  78.8423 14.77389788574977
LINGQIAO VIDEO B        
1 40960U 15057C   26165.29068172  .00001195  00000+0  17418-3 0  9991
2 40960  97.6581 161.3995 0015349 280.8780  79.0704 14.77497727575027
JILIN-1                 
1 40961U 15057D   26165.30551779  .00000744  00000+0  10930-3 0  9995
2 40961  97.6507 164.8153 0015316 273.3964  86.5496 14.78156189575188
FOX-1A (AO-85)          
1 40967U 15058D   26165.06588972  .00002476  00000+0  22792-3 0  9993
2 40967  64.7761 288.6834 0130258  57.8004 303.5661 14.90956726113100
SINOD-D 1               
1 40968U 15058E   26165.00303342  .00003470  00000+0  28236-3 0  9998
2 40968  64.7761 268.8837 0118841  54.3509 306.8602 14.95888248116180
ELEKTRO-L 2             
1 41105U 15074A   26165.04412756 -.00000114  00000+0  00000+0 0  9992
2 41105   6.6845  70.5612 0000704 243.9352 309.2359  1.00270718 38471
DAMPE                   
1 41173U 15078A   26165.29220933  .00001503  00000+0  53026-4 0  9995
2 41173  97.4554 170.7450 0013811  86.1206 274.1614 15.30779298584107
ORBCOMM FM114           
1 41179U 15081A   26164.28024829  .00000433  00000+0  12794-3 0  9996
2 41179  47.0060  20.4759 0002252 192.2086 167.8745 14.58854678557187
ORBCOMM FM110           
1 41182U 15081D   26165.29599256  .00000633  00000+0  17014-3 0  9995
2 41182  47.0033  15.1133 0002589  58.4001 301.7137 14.58876713557202
ORBCOMM FM112           
1 41184U 15081F   26165.06091727  .00000570  00000+0  15667-3 0  9994
2 41184  46.9998 285.0310 0003553 204.6631 155.4085 14.58900185558492
ORBCOMM FM113           
1 41185U 15081G   26163.05131900  .00000335  00000+0  10705-3 0  9997
2 41185  47.0017 294.9070 0001998 204.7602 155.3188 14.58853293558185
ORBCOMM FM108           
1 41187U 15081J   26164.38348595  .00000377  00000+0  11596-3 0  9991
2 41187  47.0056 200.1825 0002734 209.5581 150.5151 14.58866983559521
ORBCOMM FM117           
1 41188U 15081K   26164.82839462  .00000325  00000+0  10492-3 0  9996
2 41188  46.9996 196.7126 0003310 211.3571 148.7118 14.58863203559634
ORBCOMM FM116           
1 41189U 15081L   26165.01434114  .00000596  00000+0  16223-3 0  9992
2 41189  47.0030 285.6241 0000716  38.4671 321.6265 14.58879012558479
HORYU-4                 
1 41340U 16012D   26165.18331445  .00430944  66472-4  11344-2 0  9999
2 41340  30.9846 101.0543 0004612 251.9494 108.0665 15.93563943570337
ZIYUAN 3-02 (ZY 3-02)   
1 41556U 16033A   26165.29590288  .00005298  00000+0  23845-3 0  9995
2 41556  97.3842 241.1256 0011260 301.3530  58.6604 15.21456592557547
CARTOSAT-2C             
1 41599U 16040A   26165.22833810  .00004247  00000+0  20422-3 0  9995
2 41599  97.4493 225.2468 0010352 140.6492 219.5496 15.19297587553263
LAPAN-A3                
1 41603U 16040E   26165.25401409  .00003268  00000+0  10443-3 0  9993
2 41603  97.1482 161.4960 0011231  35.5821 324.6168 15.33087599554369
GAOFEN-3                
1 41727U 16049A   26165.30885503  .00000220  00000+0  79809-4 0  9993
2 41727  98.4009 173.1381 0001330  98.5669 261.5671 14.42215784518232
CAS-2T & KS-1Q          
1 41847U 16066G   26165.19312685  .00001608  00000+0  23241-3 0  9997
2 41847  98.3820 240.9636 0342702 138.5317 224.2432 14.44685244504361
YUNHAI-1 01             
1 41857U 16068A   26165.30301846  .00000299  00000+0  12594-3 0  9994
2 41857  98.5830 176.3367 0006287  50.1403 310.0333 14.32703786501414
RESOURCESAT-2A          
1 41877U 16074A   26165.32589421  .00000257  00000+0  13714-3 0  9991
2 41877  98.7532 238.8534 0003343  89.5029 270.6531 14.21615975493890
